{
    "links": {
        "self": "http://www.neowsapp.com/rest/v1/neo/3759769?api_key=iIulBulltgU6a56xZRHN4H3l9WmuAYTsLGpBGhQ2"
    },
    "id": "3759769",
    "neo_reference_id": "3759769",
    "name": "(2016 SN3)",
    "designation": "2016 SN3",
    "nasa_jpl_url": "http://ssd.jpl.nasa.gov/sbdb.cgi?sstr=3759769",
    "absolute_magnitude_h": 23.3,
    "estimated_diameter": {
        "kilometers": {
            "estimated_diameter_min": 0.058150704,
            "estimated_diameter_max": 0.130028927
        },
        "meters": {
            "estimated_diameter_min": 58.1507039646,
            "estimated_diameter_max": 130.0289270043
        },
        "miles": {
            "estimated_diameter_min": 0.0361331611,
            "estimated_diameter_max": 0.0807962044
        },
        "feet": {
            "estimated_diameter_min": 190.7831555951,
            "estimated_diameter_max": 426.6041048727
        }
    },
    "is_potentially_hazardous_asteroid": false,
    "close_approach_data": [
        {
            "close_approach_date": "2016-09-12",
            "close_approach_date_full": "2016-Sep-12 17:07",
            "epoch_date_close_approach": 1473700020000,
            "relative_velocity": {
                "kilometers_per_second": "23.3087996031",
                "kilometers_per_hour": "83911.6785711492",
                "miles_per_hour": "52139.4538321677"
            },
            "miss_distance": {
                "astronomical": "0.0370337606",
                "lunar": "14.4061328734",
                "kilometers": "5540171.703849922",
                "miles": "3442503.0657840436"
            },
            "orbiting_body": "Earth"
        }
    ],
    "orbital_data": {
        "orbit_id": "4",
        "orbit_determination_date": "2017-04-06 08:23:36",
        "first_observation_date": "2016-09-25",
        "last_observation_date": "2016-10-06",
        "data_arc_in_days": 11,
        "observations_used": 25,
        "orbit_uncertainty": "9",
        "minimum_orbit_intersection": ".0367245",
        "jupiter_tisserand_invariant": "3.464",
        "epoch_osculation": "2457659.5",
        "eccentricity": ".7355619480808469",
        "semi_major_axis": "1.976231717589774",
        "inclination": "5.651104213192586",
        "ascending_node_longitude": "11.89473960630769",
        "orbital_period": "1014.741038759535",
        "perihelion_distance": ".5225908655402819",
        "perihelion_argument": "240.4518040693471",
        "aphelion_distance": "3.429872569639266",
        "perihelion_time": "2457596.709292921321",
        "mean_anomaly": "22.27627905535128",
        "mean_motion": ".3547703170062778",
        "equinox": "J2000",
        "orbit_class": {
            "orbit_class_type": "APO",
            "orbit_class_description": "Near-Earth asteroid orbits which cross the Earth’s orbit similar to that of 1862 Apollo",
            "orbit_class_range": "a (semi-major axis) > 1.0 AU; q (perihelion) < 1.017 AU"
        }
    },
    "is_sentry_object": false
}